[{"OBJECT_NAME":"TISAT 1","OBJECT_ID":"2010-035E","EPOCH":"2026-03-09T18:10:07.877568","MEAN_MOTION":15.27628633,"ECCENTRICITY":0.00013432,"INCLINATION":98.0645,"RA_OF_ASC_NODE":6.8512,"ARG_OF_PERICENTER":159.303,"MEAN_ANOMALY":200.8262,"EPHEMERIS_TYPE":0,"CLASSIFICATION_TYPE":"U","NORAD_CAT_ID":36799,"ELEMENT_SET_NO":999,"REV_AT_EPOCH":85250,"BSTAR":0.00091004793,"MEAN_MOTION_DOT":0.00024554,"MEAN_MOTION_DDOT":0},{"OBJECT_NAME":"STARLINK-35980","OBJECT_ID":"2025-270N","EPOCH":"2026-03-09T23:01:03.232416","MEAN_MOTION":15.2759051,"ECCENTRICITY":9.019e-5,"INCLINATION":43.0039,"RA_OF_ASC_NODE":54.951,"ARG_OF_PERICENTER":207.577,"MEAN_ANOMALY":152.5034,"EPHEMERIS_TYPE":0,"CLASSIFICATION_TYPE":"U","NORAD_CAT_ID":66600,"ELEMENT_SET_NO":999,"REV_AT_EPOCH":1764,"BSTAR":0.0009490438,"MEAN_MOTION_DOT":0.00025954,"MEAN_MOTION_DDOT":0}]
